NORAD_CAT_ID,OBJECT_NAME,OBJECT_TYPE,EPOCH,MEAN_MOTION,ECCENTRICITY,INCLINATION,RA_OF_ASC_NODE,ARG_OF_PERICENTER,MEAN_ANOMALY,BSTAR,MEAN_MOTION_DOT,MEAN_MOTION_DDOT,TLE_LINE0,TLE_LINE1,TLE_LINE2,SEMIMAJOR_AXIS,PERIOD,APOGEE,PERIGEE,DECAYED
53016.0,STARLINK-4283,PAYLOAD,2024-01-17 04:53:19,15.08852399,0.0001828,53.2194,356.8298,107.4885,252.6307,-6.6054e-05,-1.34e-05,0.0,0 STARLINK-4283,1 53016U 22076AG  24017.20369687 -.00001340  00000-0 -66054-4 0  9992,2 53016  53.2194 356.8298 0001828 107.4885 252.6307 15.08852399 84854,6917.842,95.437,540.972,538.443,0.0
53016.0,STARLINK-4283,PAYLOAD,2024-01-18 03:08:43,15.08838775,0.0001908,53.219,352.6676,120.469,239.649,4.3707e-05,4.07e-06,0.0,0 STARLINK-4283,1 53016U 22076AG  24018.13106375  .00000407  00000-0  43707-4 0  9999,2 53016  53.2190 352.6676 0001908 120.4690 239.6490 15.08838775 85460,6917.884,95.438,541.069,538.429,0.0
53016.0,STARLINK-4283,PAYLOAD,2024-01-18 07:54:53,15.08837455,0.0001678,53.2181,351.7807,92.954,267.1644,8.8211e-05,1.116e-05,0.0,0 STARLINK-4283,1 53016U 22076AG  24018.32978537  .00001116  00000-0  88211-4 0  9994,2 53016  53.2181 351.7807 0001678  92.9540 267.1644 15.08837455 85020,6917.888,95.438,540.914,538.592,0.0
53016.0,STARLINK-4283,PAYLOAD,2024-01-19 02:59:32,15.08837914,0.0001604,53.2179,348.2125,102.2182,257.899,8.458e-05,1.058e-05,0.0,0 STARLINK-4283,1 53016U 22076AG  24019.12467657  .00001058  00000-0  84580-4 0  9999,2 53016  53.2179 348.2125 0001604 102.2182 257.8990 15.08837914 85612,6917.887,95.438,540.861,538.642,0.0
53016.0,STARLINK-4283,PAYLOAD,2024-01-19 07:45:41,15.08841043,0.0001636,53.2179,347.3171,105.2591,254.8582,0.00011203,1.495e-05,0.0,0 STARLINK-4283,1 53016U 22076AG  24019.32339414  .00001495  00000-0  11203-3 0  9996,2 53016  53.2179 347.3171 0001636 105.2591 254.8582 15.08841043 85178,6917.877,95.437,540.874,538.61,0.0
53016.0,STARLINK-4283,PAYLOAD,2024-01-19 22:04:09,15.08849583,0.000134,53.2176,344.6416,93.2737,266.8408,0.000112,1.495e-05,0.0,0 STARLINK-4283,1 53016U 22076AG  24019.91954903  .00001495  00000-0  11200-3 0  9994,2 53016  53.2176 344.6416 0001340  93.2737 266.8408 15.08849583 85264,6917.851,95.437,540.643,538.789,0.0
53016.0,STARLINK-4283,PAYLOAD,2024-01-20 02:50:17,15.08856597,0.0001303,53.2176,343.7485,94.5116,265.6025,0.00016947,2.411e-05,0.0,0 STARLINK-4283,1 53016U 22076AG  24020.11826184  .00002411  00000-0  16947-3 0  9999,2 53016  53.2176 343.7485 0001303  94.5116 265.6025 15.08856597 85764,6917.83,95.437,540.596,538.793,0.0
53016.0,STARLINK-4283,PAYLOAD,2024-01-20 07:36:26,15.08862058,0.0001338,53.2175,342.8559,97.8103,262.3041,0.00021783,3.183e-05,0.0,0 STARLINK-4283,1 53016U 22076AG  24020.31697639  .00003183  00000-0  21783-3 0  9993,2 53016  53.2175 342.8559 0001338  97.8103 262.3041 15.08862058 85328,6917.813,95.436,540.604,538.752,0.0
53016.0,STARLINK-4283,PAYLOAD,2024-01-21 02:41:05,15.08843211,0.0001618,53.2184,339.2824,120.9461,239.169,9.8358e-05,1.278e-05,0.0,0 STARLINK-4283,1 53016U 22076AG  24021.11187207  .00001278  00000-0  98358-4 0  9993,2 53016  53.2184 339.2824 0001618 120.9461 239.1690 15.08843211 85916,6917.871,95.437,540.855,538.616,0.0
53016.0,STARLINK-4283,PAYLOAD,2024-01-21 05:51:51,15.08850514,0.0001395,53.2181,338.6944,91.0883,269.0269,8.2068e-05,1.019e-05,0.0,0 STARLINK-4283,1 53016U 22076AG  24021.24435068  .00001019  00000-0  82068-4 0  9992,2 53016  53.2181 338.6944 0001395  91.0883 269.0269 15.08850514 85465,6917.848,95.437,540.678,538.748,0.0
53016.0,STARLINK-4283,PAYLOAD,2024-01-22 05:42:38,15.08858776,0.0001535,53.2187,334.2379,96.3742,263.7425,1.6936e-05,-1.8e-07,0.0,0 STARLINK-4283,1 53016U 22076AG  24022.23794228 -.00000018  00000-0  16936-4 0  9998,2 53016  53.2187 334.2379 0001535  96.3742 263.7425 15.08858776 85613,6917.823,95.436,540.75,538.626,0.0
53016.0,STARLINK-4283,PAYLOAD,2024-01-23 03:58:03,15.08841017,0.0001975,53.2203,330.0725,64.1898,295.9298,4.8113e-05,4.78e-06,0.0,0 STARLINK-4283,1 53016U 22076AG  24023.16531319  .00000478  00000-0  48113-4 0  9992,2 53016  53.2203 330.0725 0001975  64.1898 295.9298 15.08841017 86227,6917.877,95.437,541.109,538.376,0.0
53016.0,STARLINK-4283,PAYLOAD,2024-01-24 03:48:49,15.08851744,0.0002088,53.2191,325.6143,62.0888,298.0316,8.9216e-05,1.132e-05,0.0,0 STARLINK-4283,1 53016U 22076AG  24024.15890587  .00001132  00000-0  89216-4 0  9994,2 53016  53.2191 325.6143 0002088  62.0888 298.0316 15.08851744 86378,6917.844,95.437,541.154,538.265,0.0
53016.0,STARLINK-4283,PAYLOAD,2024-01-25 02:04:14,15.08840119,0.0001476,53.2178,321.4494,84.9117,275.2044,3.798e-05,3.17e-06,0.0,0 STARLINK-4283,1 53016U 22076AG  24025.08627359  .00000317  00000-0  37980-4 0  9997,2 53016  53.2178 321.4494 0001476  84.9117 275.2044 15.08840119 86519,6917.88,95.438,540.766,538.724,0.0
53016.0,STARLINK-4283,PAYLOAD,2024-01-25 22:44:14,15.08851856,0.0001309,53.2176,317.5832,106.6015,253.512,-0.0001133,-2.091e-05,0.0,0 STARLINK-4283,1 53016U 22076AG  24025.94739089 -.00002091  00000-0 -11330-3 0  9999,2 53016  53.2176 317.5832 0001309 106.6015 253.5120 15.08851856 86179,6917.844,95.437,540.615,538.804,0.0
53016.0,STARLINK-4283,PAYLOAD,2024-01-26 01:55:00,15.0885988,0.0001391,53.2185,316.9872,97.1348,262.9803,-0.00016766,-2.957e-05,0.0,0 STARLINK-4283,1 53016U 22076AG  24026.07986706 -.00002957  00000-0 -16766-3 0  9993,2 53016  53.2185 316.9872 0001391  97.1348 262.9803 15.08859880 86661,6917.82,95.436,540.647,538.722,0.0
53016.0,STARLINK-4283,PAYLOAD,2024-01-26 19:24:15,15.08839788,0.0001504,53.2186,313.7164,84.791,275.3253,0.00010639,1.406e-05,0.0,0 STARLINK-4283,1 53016U 22076AG  24026.80851509  .00001406  00000-0  10639-3 0  9995,2 53016  53.2186 313.7164 0001504  84.7910 275.3253 15.08839788 86778,6917.881,95.438,540.786,538.706,0.0
53016.0,STARLINK-4283,PAYLOAD,2024-01-27 01:45:48,15.08843267,0.0001518,53.2185,312.5274,83.0908,277.0257,0.00012829,1.755e-05,0.0,0 STARLINK-4283,1 53016U 22076AG  24027.07347252  .00001755  00000-0  12829-3 0  9990,2 53016  53.2185 312.5274 0001518  83.0908 277.0257 15.08843267 86343,6917.87,95.437,540.786,538.685,0.0
53016.0,STARLINK-4283,PAYLOAD,2024-01-27 22:25:49,15.08838007,0.0001701,53.2197,308.6665,107.6999,252.4179,5.7327e-05,6.24e-06,0.0,0 STARLINK-4283,1 53016U 22076AG  24027.93459739  .00000624  00000-0  57327-4 0  9996,2 53016  53.2197 308.6665 0001701 107.6999 252.4179 15.08838007 86473,6917.886,95.438,540.928,538.575,0.0
53016.0,STARLINK-4283,PAYLOAD,2024-01-28 04:47:21,15.08837007,0.0001522,53.2189,307.4713,99.1514,260.965,0.00014897,2.083e-05,0.0,0 STARLINK-4283,1 53016U 22076AG  24028.19955559  .00002083  00000-0  14897-3 0  9991,2 53016  53.2189 307.4713 0001522  99.1514 260.9650 15.08837007 86987,6917.89,95.438,540.807,538.702,0.0
53016.0,STARLINK-4283,PAYLOAD,2024-01-28 22:16:36,15.08838498,0.0001572,53.2186,304.1977,101.0022,259.1147,-8.1875e-06,-4.18e-06,0.0,0 STARLINK-4283,1 53016U 22076AG  24028.92819989 -.00000418  00000-0 -81875-5 0  9992,2 53016  53.2186 304.1977 0001572 101.0022 259.1147 15.08838498 86629,6917.885,95.438,540.837,538.662,0.0
53016.0,STARLINK-4283,PAYLOAD,2024-01-29 04:38:08,15.08841914,0.0001725,53.2186,303.0086,102.5659,257.5526,-5.857e-05,-1.22e-05,0.0,0 STARLINK-4283,1 53016U 22076AG  24029.19315910 -.00001220  00000-0 -58570-4 0  9994,2 53016  53.2186 303.0086 0001725 102.5659 257.5526 15.08841914 86664,6917.875,95.437,540.933,538.546,0.0
53016.0,STARLINK-4283,PAYLOAD,2024-01-30 02:53:31,15.08852497,0.0001468,53.2179,298.846,101.1141,259.0016,6.153e-05,6.92e-06,0.0,0 STARLINK-4283,1 53016U 22076AG  24030.12050871  .00000692  00000-0  61530-4 0  9991,2 53016  53.2179 298.8460 0001468 101.1141 259.0016 15.08852497 87275,6917.842,95.437,540.723,538.692,0.0
53016.0,STARLINK-4283,PAYLOAD,2024-01-30 17:12:01,15.08836952,0.0001673,53.2158,296.1723,105.8259,254.2918,8.4566e-05,1.058e-05,0.0,0 STARLINK-4283,1 53016U 22076AG  24030.71667841  .00001058  00000-0  84566-4 0  9998,2 53016  53.2158 296.1723 0001673 105.8259 254.2918 15.08836952 87360,6917.89,95.438,540.912,538.597,0.0
53016.0,STARLINK-4283,PAYLOAD,2024-01-30 21:58:10,15.08826844,0.0001437,53.216,295.2801,98.001,262.1146,0.00014975,2.095e-05,0.0,0 STARLINK-4283,1 53016U 22076AG  24030.91540232  .00002095  00000-0  14975-3 0  9992,2 53016  53.2160 295.2801 0001437  98.0010 262.1146 15.08826844 86927,6917.921,95.438,540.78,538.791,0.0
53016.0,STARLINK-4283,PAYLOAD,2024-01-31 02:44:19,15.08839649,0.0001353,53.2173,294.3883,92.789,267.3257,3.8928e-05,3.32e-06,0.0,0 STARLINK-4283,1 53016U 22076AG  24031.11411917  .00000332  00000-0  38928-4 0  9999,2 53016  53.2173 294.3883 0001353  92.7890 267.3257 15.08839649 86955,6917.881,95.438,540.682,538.81,0.0
53016.0,STARLINK-4283,PAYLOAD,2024-01-31 23:24:20,15.08845688,0.00013,53.2173,290.5225,100.1363,259.9776,-2.5446e-05,-6.93e-06,0.0,0 STARLINK-4283,1 53016U 22076AG  24031.97523673 -.00000693  00000-0 -25446-4 0  9999,2 53016  53.2173 290.5225 0001300 100.1363 259.9776 15.08845688 87554,6917.863,95.437,540.627,538.829,0.0
53016.0,STARLINK-4283,PAYLOAD,2024-02-01 18:28:58,15.08837371,0.000136,53.2166,286.9556,89.8415,270.2733,7.121e-05,8.45e-06,0.0,0 STARLINK-4283,1 53016U 22076AG  24032.77012058  .00000845  00000-0  71210-4 0  9995,2 53016  53.2166 286.9556 0001360  89.8415 270.2733 15.08837371 87671,6917.888,95.438,540.694,538.813,0.0
53016.0,STARLINK-4283,PAYLOAD,2024-02-01 23:15:07,15.08839073,0.0001355,53.2167,286.0635,90.1565,269.9583,8.1625e-05,1.011e-05,0.0,0 STARLINK-4283,1 53016U 22076AG  24032.96883950  .00001011  00000-0  81625-4 0  9990,2 53016  53.2167 286.0635 0001355  90.1565 269.9583 15.08839073 87237,6917.883,95.438,540.686,538.811,0.0
53016.0,STARLINK-4283,PAYLOAD,2024-02-02 19:55:08,15.08840224,0.0001451,53.2174,282.2002,94.7407,265.3751,8.9718e-05,1.14e-05,0.0,0 STARLINK-4283,1 53016U 22076AG  24033.82995858  .00001140  00000-0  89718-4 0  9991,2 53016  53.2174 282.2002 0001451  94.7407 265.3751 15.08840224 87836,6917.88,95.438,540.748,538.741,0.0
